NORAD_CAT_ID,OBJECT_NAME,OBJECT_TYPE,EPOCH,MEAN_MOTION,ECCENTRICITY,INCLINATION,RA_OF_ASC_NODE,ARG_OF_PERICENTER,MEAN_ANOMALY,BSTAR,MEAN_MOTION_DOT,MEAN_MOTION_DDOT,TLE_LINE0,TLE_LINE1,TLE_LINE2,SEMIMAJOR_AXIS,PERIOD,APOGEE,PERIGEE,DECAYED
55392.0,STARLINK-5085,PAYLOAD,2024-04-27 21:16:43,14.98335564,0.0003127,69.9996,320.8945,266.2666,93.8135,9.7923e-05,1.076e-05,0.0,0 STARLINK-5085,1 55392U 23014B   24118.88661997  .00001076  00000-0  97923-4 0  9992,2 55392  69.9996 320.8945 0003127 266.2666  93.8135 14.98335564 70578,6950.176,96.107,574.214,569.867,0.0
55392.0,STARLINK-5085,PAYLOAD,2024-04-27 22:52:52,14.98331976,0.0003003,70.0,320.7261,267.7134,92.3681,6.5838e-05,6.93e-06,0.0,0 STARLINK-5085,1 55392U 23014B   24118.95338183  .00000693  00000-0  65838-4 0  9992,2 55392  70.0000 320.7261 0003003 267.7134  92.3681 14.98331976 69645,6950.187,96.107,574.139,569.965,0.0
55392.0,STARLINK-5085,PAYLOAD,2024-04-28 14:54:12,14.98329248,0.0003001,69.9999,319.0427,269.5955,90.486,2.5525e-05,2.12e-06,0.0,0 STARLINK-5085,1 55392U 23014B   24119.62098236  .00000212  00000-0  25525-4 0  9995,2 55392  69.9999 319.0427 0003001 269.5955  90.4860 14.98329248 70686,6950.195,96.107,574.146,569.974,0.0
55392.0,STARLINK-5085,PAYLOAD,2024-04-28 21:18:45,14.98327806,0.0002977,69.9986,318.3694,269.13,90.9518,5.2115e-06,-3.1e-07,0.0,0 STARLINK-5085,1 55392U 23014B   24119.88802550 -.00000031  00000-0  52115-5 0  9991,2 55392  69.9986 318.3694 0002977 269.1300  90.9518 14.98327806 70729,6950.2,96.107,574.134,569.996,0.0
55392.0,STARLINK-5085,PAYLOAD,2024-04-28 22:54:53,14.98329728,0.0003112,69.9985,318.2011,271.2219,88.8584,-2.6174e-05,-4.05e-06,0.0,0 STARLINK-5085,1 55392U 23014B   24119.95478470 -.00000405  00000-0 -26174-4 0  9990,2 55392  69.9985 318.2011 0003112 271.2219  88.8584 14.98329728 69794,6950.194,96.107,574.222,569.896,0.0
55392.0,STARLINK-5085,PAYLOAD,2024-04-29 14:56:13,14.9832877,0.0003077,69.9981,316.5172,269.2889,90.7917,7.3267e-05,7.81e-06,0.0,0 STARLINK-5085,1 55392U 23014B   24120.62238257  .00000781  00000-0  73267-4 0  9993,2 55392  69.9981 316.5172 0003077 269.2889  90.7917 14.98328770 70834,6950.197,96.107,574.2,569.923,0.0
55392.0,STARLINK-5085,PAYLOAD,2024-04-29 22:56:53,14.98332732,0.0003084,69.9981,315.6752,268.9,91.1805,7.1463e-05,7.6e-06,0.0,0 STARLINK-5085,1 55392U 23014B   24120.95618000  .00000760  00000-0  71463-4 0  9990,2 55392  69.9981 315.6752 0003084 268.9000  91.1805 14.98332732 70886,6950.184,96.107,574.193,569.906,0.0
55392.0,STARLINK-5085,PAYLOAD,2024-04-30 14:58:14,14.98328891,0.000304,69.9983,313.9916,269.1961,90.885,9.0051e-05,9.82e-06,0.0,0 STARLINK-5085,1 55392U 23014B   24121.62378220  .00000982  00000-0  90051-4 0  9992,2 55392  69.9983 313.9916 0003040 269.1961  90.8850 14.98328891 70980,6950.196,96.107,574.174,569.948,0.0
55392.0,STARLINK-5085,PAYLOAD,2024-04-30 21:22:46,14.9832995,0.0003071,69.9984,313.3185,269.4081,90.6726,9.4568e-05,1.036e-05,0.0,0 STARLINK-5085,1 55392U 23014B   24121.89082173  .00001036  00000-0  94568-4 0  9998,2 55392  69.9984 313.3185 0003071 269.4081  90.6726 14.98329950 71026,6950.193,96.107,574.192,569.924,0.0
55392.0,STARLINK-5085,PAYLOAD,2024-04-30 22:58:55,14.98330329,0.0003072,69.9984,313.1501,269.4234,90.6573,9.7034e-05,1.065e-05,0.0,0 STARLINK-5085,1 55392U 23014B   24121.95758147  .00001065  00000-0  97034-4 0  9999,2 55392  69.9984 313.1501 0003072 269.4234  90.6573 14.98330329 70095,6950.192,96.107,574.192,569.922,0.0
55392.0,STARLINK-5085,PAYLOAD,2024-05-01 11:47:59,14.98333508,0.0003155,69.9977,311.8033,268.7525,91.3273,7.5952e-05,8.13e-06,0.0,0 STARLINK-5085,1 55392U 23014B   24122.49165881  .00000813  00000-0  75952-4 0  9991,2 55392  69.9977 311.8033 0003155 268.7525  91.3273 14.98333508 71110,6950.182,96.107,574.24,569.854,0.0
55392.0,STARLINK-5085,PAYLOAD,2024-05-01 23:00:55,14.98339028,0.0003172,69.9977,310.6247,269.0911,90.9885,9.1457e-05,9.99e-06,0.0,0 STARLINK-5085,1 55392U 23014B   24122.95897300  .00000999  00000-0  91457-4 0  9993,2 55392  69.9977 310.6247 0003172 269.0911  90.9885 14.98339028 70246,6950.165,96.106,574.235,569.825,0.0
55392.0,STARLINK-5085,PAYLOAD,2024-05-02 13:26:08,14.98327029,0.0003175,69.9977,309.1093,271.1272,88.9523,-2.1091e-05,-3.45e-06,0.0,0 STARLINK-5085,1 55392U 23014B   24123.55982195 -.00000345  00000-0 -21091-4 0  9991,2 55392  69.9977 309.1093 0003175 271.1272  88.9523 14.98327029 70339,6950.202,96.107,574.274,569.86,0.0
55392.0,STARLINK-5085,PAYLOAD,2024-05-02 23:02:56,14.98332691,0.0003001,69.9981,308.1001,267.6758,92.4057,4.0695e-05,3.93e-06,0.0,0 STARLINK-5085,1 55392U 23014B   24123.96037656  .00000393  00000-0  40695-4 0  9991,2 55392  69.9981 308.1001 0003001 267.6758  92.4057 14.98332691 70398,6950.185,96.107,574.135,569.964,0.0
55392.0,STARLINK-5085,PAYLOAD,2024-05-03 15:04:17,14.9833462,0.0002945,69.998,306.4166,267.3207,92.7615,-1.9326e-05,-3.24e-06,0.0,0 STARLINK-5085,1 55392U 23014B   24124.62797563 -.00000324  00000-0 -19326-4 0  9998,2 55392  69.9980 306.4166 0002945 267.3207  92.7615 14.98334620 71435,6950.179,96.107,574.09,569.997,0.0
55392.0,STARLINK-5085,PAYLOAD,2024-05-03 21:28:49,14.98329704,0.000299,69.998,305.7431,267.0004,93.0812,-5.5186e-05,-7.51e-06,0.0,0 STARLINK-5085,1 55392U 23014B   24124.89501896 -.00000751  00000-0 -55186-4 0  9997,2 55392  69.9980 305.7431 0002990 267.0004  93.0812 14.98329704 71478,6950.194,96.107,574.137,569.981,0.0
55392.0,STARLINK-5085,PAYLOAD,2024-05-04 13:30:10,14.98324617,0.0003104,69.9976,304.0592,267.972,92.1083,3.9183e-05,3.74e-06,0.0,0 STARLINK-5085,1 55392U 23014B   24125.56262097  .00000374  00000-0  39183-4 0  9997,2 55392  69.9976 304.0592 0003104 267.9720  92.1083 14.98324617 70630,6950.21,96.107,574.232,569.917,0.0
55392.0,STARLINK-5085,PAYLOAD,2024-05-05 13:32:11,14.98330663,0.0003103,69.998,301.5344,268.8108,91.2695,5.2045e-05,5.28e-06,0.0,0 STARLINK-5085,1 55392U 23014B   24126.56401804  .00000528  00000-0  52045-4 0  9992,2 55392  69.9980 301.5344 0003103 268.8108  91.2695 14.98330663 70784,6950.191,96.107,574.212,569.899,0.0
55392.0,STARLINK-5085,PAYLOAD,2024-05-05 21:32:51,14.98332759,0.0003108,69.9981,300.6931,269.4587,90.6216,7.7824e-05,8.36e-06,0.0,0 STARLINK-5085,1 55392U 23014B   24126.89781585  .00000836  00000-0  77824-4 0  9999,2 55392  69.9981 300.6931 0003108 269.4587  90.6216 14.98332759 71770,6950.184,96.107,574.209,569.889,0.0
55392.0,STARLINK-5085,PAYLOAD,2024-05-06 13:34:11,14.98333785,0.0003073,69.9984,299.0095,269.6398,90.4409,0.00010737,1.188e-05,0.0,0 STARLINK-5085,1 55392U 23014B   24127.56541466  .00001188  00000-0  10737-3 0  9996,2 55392  69.9984 299.0095 0003073 269.6398  90.4409 14.98333785 70937,6950.181,96.107,574.182,569.91,0.0
55392.0,STARLINK-5085,PAYLOAD,2024-05-06 15:10:19,14.98334268,0.0003072,69.9984,298.8411,269.6353,90.4454,0.0001109,1.231e-05,0.0,0 STARLINK-5085,1 55392U 23014B   24127.63217418  .00001231  00000-0  11090-3 0  9993,2 55392  69.9984 298.8411 0003072 269.6353  90.4454 14.98334268 71888,6950.18,96.107,574.18,569.91,0.0
55392.0,STARLINK-5085,PAYLOAD,2024-05-06 21:34:51,14.98338604,0.0003027,69.9986,298.168,269.046,91.0352,0.00012892,1.446e-05,0.0,0 STARLINK-5085,1 55392U 23014B   24127.89920991  .00001446  00000-0  12892-3 0  9997,2 55392  69.9986 298.1680 0003027 269.0460  91.0352 14.98338604 71921,6950.166,96.106,574.135,569.927,0.0
55392.0,STARLINK-5085,PAYLOAD,2024-05-07 12:00:05,14.98327246,0.0002832,69.9992,296.6535,267.3456,92.7379,-1.9166e-05,-3.22e-06,0.0,0 STARLINK-5085,1 55392U 23014B   24128.50006051 -.00000322  00000-0 -19166-4 0  9994,2 55392  69.9992 296.6535 0002832 267.3456  92.7379 14.98327246 71072,6950.201,96.107,574.035,570.098,0.0
55392.0,STARLINK-5085,PAYLOAD,2024-05-07 13:36:13,14.98326892,0.0002845,69.9992,296.4852,267.4255,92.6578,-2.4208e-05,-3.82e-06,0.0,0 STARLINK-5085,1 55392U 23014B   24128.56682087 -.00000382  00000-0 -24208-4 0  9998,2 55392  69.9992 296.4852 0002845 267.4255  92.6578 14.98326892 72026,6950.203,96.107,574.045,570.09,0.0
55392.0,STARLINK-5085,PAYLOAD,2024-05-07 21:36:53,14.98327727,0.000283,69.9992,295.6435,267.3222,92.7613,-1.7341e-05,-3e-06,0.0,0 STARLINK-5085,1 55392U 23014B   24128.90062014 -.00000300  00000-0 -17341-4 0  9998,2 55392  69.9992 295.6435 0002830 267.3222  92.7613 14.98327727 72075,6950.2,96.107,574.032,570.098,0.0
55392.0,STARLINK-5085,PAYLOAD,2024-05-08 12:02:05,14.98337538,0.0002872,69.9991,294.1281,268.3446,91.7384,1.8557e-05,1.28e-06,0.0,0 STARLINK-5085,1 55392U 23014B   24129.50145285  .00000128  00000-0  18557-4 0  9993,2 55392  69.9991 294.1281 0002872 268.3446  91.7384 14.98337538 71223,6950.17,96.107,574.031,570.038,0.0
55392.0,STARLINK-5085,PAYLOAD,2024-05-08 13:38:13,14.98337557,0.0002877,69.9991,293.9598,268.2483,91.8347,1.867e-05,1.3e-06,0.0,0 STARLINK-5085,1 55392U 23014B   24129.56821252  .00000130  00000-0  18670-4 0  9993,2 55392  69.9991 293.9598 0002877 268.2483  91.8347 14.98337557 72172,6950.17,96.107,574.034,570.035,0.0
55392.0,STARLINK-5085,PAYLOAD,2024-05-08 20:02:45,14.98338543,0.0002868,69.9992,293.2864,268.9473,91.1357,2.9721e-05,2.62e-06,0.0,0 STARLINK-5085,1 55392U 23014B   24129.83525010  .00000262  00000-0  29721-4 0  9991,2 55392  69.9992 293.2864 0002868 268.9473  91.1357 14.98338543 72213,6950.166,96.106,574.025,570.038,0.0
55392.0,STARLINK-5085,PAYLOAD,2024-05-09 04:03:25,14.98369875,0.0002933,69.9992,292.4448,277.6437,82.4389,-0.00061212,-7.397e-05,0.0,0 STARLINK-5085,1 55392U 23014B   24130.16904192 -.00007397  00000-0 -61212-3 0  9999,2 55392  69.9992 292.4448 0002933 277.6437  82.4389 14.98369875 71323,6950.07,96.104,573.973,569.896,0.0
55392.0,STARLINK-5085,PAYLOAD,2024-05-09 12:04:06,14.98325257,0.0002921,69.9991,291.6031,271.1332,88.9492,6.307e-05,6.6e-06,0.0,0 STARLINK-5085,1 55392U 23014B   24130.50285768  .00000660  00000-0  63070-4 0  9997,2 55392  69.9991 291.6031 0002921 271.1332  88.9492 14.98325257 71378,6950.208,96.107,574.103,570.042,0.0
